start=new Date('2022-11-14T00:00:00.000Z').valueOf();
sats=[{"DECAY_DATE":null,"MEAN_ELEMENT_THEORY":"SGP4","TIME_SYSTEM":"UTC","NORAD_CAT_ID":"53536","TLE_LINE2":"2 53536  53.2161 104.0580 0001607  60.4136 299.7015 15.07205873 13346","BSTAR":"0.00010953000000","CLASSIFICATION_TYPE":"U","SITE":"AFETR","MEAN_MOTION":"15.07205873","OBJECT_ID":"2022-101K","EPHEMERIS_TYPE":"0","ECCENTRICITY":"0.00016070","INCLINATION":"53.2161","SEMIMAJOR_AXIS":"6922.880","LAUNCH_DATE":"2022-08-19","MEAN_MOTION_DOT":"0.00001384","MEAN_MOTION_DDOT":"0.0000000000000","PERIAPSIS":"543.632","PERIOD":"95.541","TLE_LINE1":"1 53536U 22101K   22317.69393021  .00001384  00000-0  10953-3 0  9993","RA_OF_ASC_NODE":"104.0580","GP_ID":"217694871","REV_AT_EPOCH":"1334","ARG_OF_PERICENTER":"60.4136","CENTER_NAME":"EARTH","APOAPSIS":"545.857","ELEMENT_SET_NO":"999","COUNTRY_CODE":"US","REF_FRAME":"TEME","FILE":"3653957","EPOCH":"2022-11-13T16:39:15.570144","OBJECT_NAME":"STARLINK-4053","RCS_SIZE":"LARGE","MEAN_ANOMALY":"299.7015","OBJECT_TYPE":"PAYLOAD"},{"COUNTRY_CODE":"US","REF_FRAME":"TEME","FILE":"3653957","RCS_SIZE":"LARGE","MEAN_ANOMALY":"310.5016","OBJECT_TYPE":"PAYLOAD","EPOCH":"2022-11-13T17:41:26.157120","OBJECT_NAME":"STARLINK-4120","ARG_OF_PERICENTER":"49.6124","TLE_LINE1":"1 53537U 22101L   22317.73710830 -.00000584  00000-0 -18568-4 0  9994","RA_OF_ASC_NODE":"114.7747","GP_ID":"217695887","REV_AT_EPOCH":"1320","ELEMENT_SET_NO":"999","CENTER_NAME":"EARTH","APOAPSIS":"540.930","ECCENTRICITY":"0.00016980","INCLINATION":"53.2181","SEMIMAJOR_AXIS":"6917.890","LAUNCH_DATE":"2022-08-19","EPHEMERIS_TYPE":"0","PERIOD":"95.438","MEAN_MOTION_DOT":"-0.00000584","MEAN_MOTION_DDOT":"0.0000000000000","PERIAPSIS":"538.580","MEAN_ELEMENT_THEORY":"SGP4","NORAD_CAT_ID":"53537","TIME_SYSTEM":"UTC","TLE_LINE2":"2 53537  53.2181 114.7747 0001698  49.6124 310.5016 15.08836850 13202","BSTAR":"-0.00001856800000","DECAY_DATE":null,"SITE":"AFETR","MEAN_MOTION":"15.08836850","OBJECT_ID":"2022-101L","CLASSIFICATION_TYPE":"U"},{"ARG_OF_PERICENTER":"67.1917","GP_ID":"217695719","RA_OF_ASC_NODE":"104.8960","TLE_LINE1":"1 53538U 22101M   22317.71226746 -.00000580  00000-0 -18374-4 0  9992","REV_AT_EPOCH":"1402","ELEMENT_SET_NO":"999","APOAPSIS":"540.643","CENTER_NAME":"EARTH","COUNTRY_CODE":"US","FILE":"3653957","REF_FRAME":"TEME","OBJECT_TYPE":"PAYLOAD","MEAN_ANOMALY":"292.9213","RCS_SIZE":"LARGE","OBJECT_NAME":"STARLINK-4118","EPOCH":"2022-11-13T17:05:39.908544","TIME_SYSTEM":"UTC","NORAD_CAT_ID":"53538","MEAN_ELEMENT_THEORY":"SGP4","BSTAR":"-0.00001837400000","TLE_LINE2":"2 53538  53.2157 104.8960 0001305  67.1917 292.9213 15.08841850 14022","DECAY_DATE":null,"MEAN_MOTION":"15.08841850","SITE":"AFETR","OBJECT_ID":"2022-101M","CLASSIFICATION_TYPE":"U","ECCENTRICITY":"0.00013050","INCLINATION":"53.2157","SEMIMAJOR_AXIS":"6917.875","LAUNCH_DATE":"2022-08-19","EPHEMERIS_TYPE":"0","PERIOD":"95.437","MEAN_MOTION_DOT":"-0.00000580","PERIAPSIS":"538.837","MEAN_MOTION_DDOT":"0.0000000000000"},{"DECAY_DATE":null,"TLE_LINE2":"2 53539  53.2182 114.8074 0001833  54.0354 306.0808 15.08844961 13206","BSTAR":"0.00008114200000","MEAN_ELEMENT_THEORY":"SGP4","TIME_SYSTEM":"UTC","NORAD_CAT_ID":"53539","CLASSIFICATION_TYPE":"U","OBJECT_ID":"2022-101N","SITE":"AFETR","MEAN_MOTION":"15.08844961","EPHEMERIS_TYPE":"0","SEMIMAJOR_AXIS":"6917.865","LAUNCH_DATE":"2022-08-19","INCLINATION":"53.2182","ECCENTRICITY":"0.00018330","MEAN_MOTION_DDOT":"0.0000000000000","PERIAPSIS":"538.462","MEAN_MOTION_DOT":"0.00001004","PERIOD":"95.437","REV_AT_EPOCH":"1320","TLE_LINE1":"1 53539U 22101N   22317.72974292  .00001004  00000-0  81142-4 0  9993","GP_ID":"217695116","RA_OF_ASC_NODE":"114.8074","ARG_OF_PERICENTER":"54.0354","CENTER_NAME":"EARTH","APOAPSIS":"540.998","ELEMENT_SET_NO":"999","REF_FRAME":"TEME","FILE":"3653957","COUNTRY_CODE":"US","EPOCH":"2022-11-13T17:30:49.788288","OBJECT_NAME":"STARLINK-4123","RCS_SIZE":"LARGE","OBJECT_TYPE":"PAYLOAD","MEAN_ANOMALY":"306.0808"},{"REF_FRAME":"TEME","FILE":"3653957","COUNTRY_CODE":"US","RCS_SIZE":"LARGE","MEAN_ANOMALY":"284.7659","OBJECT_TYPE":"PAYLOAD","EPOCH":"2022-11-13T18:35:44.880000","OBJECT_NAME":"STARLINK-4486","ARG_OF_PERICENTER":"75.3503","REV_AT_EPOCH":"1403","TLE_LINE1":"1 53540U 22101P   22317.77482500 -.00000673  00000-0 -24171-4 0  9998","GP_ID":"217695285","RA_OF_ASC_NODE":"104.6170","ELEMENT_SET_NO":"999","CENTER_NAME":"EARTH","APOAPSIS":"540.809","SEMIMAJOR_AXIS":"6917.885","LAUNCH_DATE":"2022-08-19","ECCENTRICITY":"0.00015320","INCLINATION":"53.2173","EPHEMERIS_TYPE":"0","PERIOD":"95.438","MEAN_MOTION_DDOT":"0.0000000000000","PERIAPSIS":"538.690","MEAN_MOTION_DOT":"-0.00000673","TLE_LINE2":"2 53540  53.2173 104.6170 0001532  75.3503 284.7659 15.08838599 14038","BSTAR":"-0.00002417100000","MEAN_ELEMENT_THEORY":"SGP4","NORAD_CAT_ID":"53540","TIME_SYSTEM":"UTC","DECAY_DATE":null,"OBJECT_ID":"2022-101P","SITE":"AFETR","MEAN_MOTION":"15.08838599","CLASSIFICATION_TYPE":"U"},{"OBJECT_TYPE":"PAYLOAD","MEAN_ANOMALY":"301.5654","RCS_SIZE":"MEDIUM","OBJECT_NAME":"STARLINK-4485","EPOCH":"2022-11-13T17:20:13.763328","COUNTRY_CODE":"US","FILE":"3653957","REF_FRAME":"TEME","ELEMENT_SET_NO":"999","APOAPSIS":"540.836","CENTER_NAME":"EARTH","ARG_OF_PERICENTER":"58.5493","RA_OF_ASC_NODE":"114.8373","GP_ID":"217695625","TLE_LINE1":"1 53541U 22101Q   22317.72238152 -.00000609  00000-0 -20171-4 0  9991","REV_AT_EPOCH":"1389","PERIOD":"95.437","MEAN_MOTION_DOT":"-0.00000609","PERIAPSIS":"538.647","MEAN_MOTION_DDOT":"0.0000000000000","INCLINATION":"53.2192","ECCENTRICITY":"0.00015820","SEMIMAJOR_AXIS":"6917.877","LAUNCH_DATE":"2022-08-19","EPHEMERIS_TYPE":"0","MEAN_MOTION":"15.08841182","SITE":"AFETR","OBJECT_ID":"2022-101Q","CLASSIFICATION_TYPE":"U","TIME_SYSTEM":"UTC","NORAD_CAT_ID":"53541","MEAN_ELEMENT_THEORY":"SGP4","BSTAR":"-0.00002017100000","TLE_LINE2":"2 53541  53.2192 114.8373 0001582  58.5493 301.5654 15.08841182 13892","DECAY_DATE":null},{"OBJECT_TYPE":"PAYLOAD","MEAN_ANOMALY":"295.3913","RCS_SIZE":"LARGE","OBJECT_NAME":"STARLINK-4489","EPOCH":"2022-11-13T18:25:09.058080","COUNTRY_CODE":"US","FILE":"3653957","REF_FRAME":"TEME","ELEMENT_SET_NO":"999","APOAPSIS":"540.716","CENTER_NAME":"EARTH","ARG_OF_PERICENTER":"64.7224","RA_OF_ASC_NODE":"104.6479","GP_ID":"217695457","TLE_LINE1":"1 53542U 22101R   22317.76746595 -.00002050  00000-0 -11073-3 0  9993","REV_AT_EPOCH":"1403","PERIOD":"95.438","MEAN_MOTION_DOT":"-0.00002050","PERIAPSIS":"538.786","MEAN_MOTION_DDOT":"0.0000000000000","INCLINATION":"53.2165","ECCENTRICITY":"0.00013950","SEMIMAJOR_AXIS":"6917.886","LAUNCH_DATE":"2022-08-19","EPHEMERIS_TYPE":"0","MEAN_MOTION":"15.08838251","SITE":"AFETR","OBJECT_ID":"2022-101R","CLASSIFICATION_TYPE":"U","TIME_SYSTEM":"UTC","NORAD_CAT_ID":"53542","MEAN_ELEMENT_THEORY":"SGP4","BSTAR":"-0.00011073000000","TLE_LINE2":"2 53542  53.2165 104.6479 0001395  64.7224 295.3913 15.08838251 14038","DECAY_DATE":null},{"BSTAR":"-0.00022060000000","TLE_LINE2":"2 53543  53.2157 104.6107 0001420  82.9325 277.1829 15.08847146 14038","NORAD_CAT_ID":"53543","TIME_SYSTEM":"UTC","MEAN_ELEMENT_THEORY":"SGP4","DECAY_DATE":null,"OBJECT_ID":"2022-101S","MEAN_MOTION":"15.08847146","SITE":"AFETR","CLASSIFICATION_TYPE":"U","LAUNCH_DATE":"2022-08-19","SEMIMAJOR_AXIS":"6917.859","ECCENTRICITY":"0.00014200","INCLINATION":"53.2157","EPHEMERIS_TYPE":"0","PERIOD":"95.437","PERIAPSIS":"538.741","MEAN_MOTION_DDOT":"0.0000000000000","MEAN_MOTION_DOT":"-0.00003798","ARG_OF_PERICENTER":"82.9325","REV_AT_EPOCH":"1403","GP_ID":"217694703","RA_OF_ASC_NODE":"104.6107","TLE_LINE1":"1 53543U 22101S   22317.77577940 -.00003798  00000-0 -22060-3 0  9999","ELEMENT_SET_NO":"999","APOAPSIS":"540.706","CENTER_NAME":"EARTH","FILE":"3653957","REF_FRAME":"TEME","COUNTRY_CODE":"US","MEAN_ANOMALY":"277.1829","OBJECT_TYPE":"PAYLOAD","RCS_SIZE":"LARGE","OBJECT_NAME":"STARLINK-4297","EPOCH":"2022-11-13T18:37:07.340160"},{"PERIOD":"95.437","MEAN_MOTION_DOT":"-0.00000354","PERIAPSIS":"538.672","MEAN_MOTION_DDOT":"0.0000000000000","INCLINATION":"53.2156","ECCENTRICITY":"0.00015320","SEMIMAJOR_AXIS":"6917.867","LAUNCH_DATE":"2022-08-19","EPHEMERIS_TYPE":"0","MEAN_MOTION":"15.08844329","SITE":"AFETR","OBJECT_ID":"2022-101T","CLASSIFICATION_TYPE":"U","NORAD_CAT_ID":"53544","TIME_SYSTEM":"UTC","MEAN_ELEMENT_THEORY":"SGP4","BSTAR":"-0.00000414770000","TLE_LINE2":"2 53544  53.2156 105.2754 0001532  68.0073 292.1082 15.08844329 13994","DECAY_DATE":null,"OBJECT_TYPE":"PAYLOAD","MEAN_ANOMALY":"292.1082","RCS_SIZE":"LARGE","OBJECT_NAME":"STARLINK-4303","EPOCH":"2022-11-13T15:03:46.284192","COUNTRY_CODE":"US","FILE":"3653957","REF_FRAME":"TEME","ELEMENT_SET_NO":"999","APOAPSIS":"540.792","CENTER_NAME":"EARTH","ARG_OF_PERICENTER":"68.0073","RA_OF_ASC_NODE":"105.2754","GP_ID":"217694872","TLE_LINE1":"1 53544U 22101T   22317.62761903 -.00000354  00000-0 -41477-5 0  9998","REV_AT_EPOCH":"1399"},{"ARG_OF_PERICENTER":"64.5916","REV_AT_EPOCH":"1403","RA_OF_ASC_NODE":"104.6306","GP_ID":"217695888","TLE_LINE1":"1 53545U 22101U   22317.77114283 -.00000688  00000-0 -25125-4 0  9999","ELEMENT_SET_NO":"999","APOAPSIS":"540.930","CENTER_NAME":"EARTH","FILE":"3653957","REF_FRAME":"TEME","COUNTRY_CODE":"US","MEAN_ANOMALY":"295.5252","OBJECT_TYPE":"PAYLOAD","RCS_SIZE":"LARGE","OBJECT_NAME":"STARLINK-4475","EPOCH":"2022-11-13T18:30:26.740512","BSTAR":"-0.00002512500000","TLE_LINE2":"2 53545  53.2164 104.6306 0001702  64.5916 295.5252 15.08837570 14038","NORAD_CAT_ID":"53545","TIME_SYSTEM":"UTC","MEAN_ELEMENT_THEORY":"SGP4","DECAY_DATE":null,"OBJECT_ID":"2022-101U","MEAN_MOTION":"15.08837570","SITE":"AFETR","CLASSIFICATION_TYPE":"U","SEMIMAJOR_AXIS":"6917.888","LAUNCH_DATE":"2022-08-19","INCLINATION":"53.2164","ECCENTRICITY":"0.00017020","EPHEMERIS_TYPE":"0","PERIOD":"95.438","PERIAPSIS":"538.575","MEAN_MOTION_DDOT":"0.0000000000000","MEAN_MOTION_DOT":"-0.00000688"}];
